SENTINEL-6              
1 46984U 20086A   23187.80871764 -.00000050  00000+0  46381-4 0  9990
2 46984  66.0387 210.7017 0008105 269.3309  90.6778 12.80930264122598
